{
  "type": "FeatureCollection",
  "features": [
    {
      "type": "Feature",
      "properties": {
        "OBJECT_NAME": "COSMOS 2251 DEB",
        "OBJECT_ID": "1993-036BDV",
        "EPOCH": "2025-11-26T04:20:27.245760",
        "MEAN_MOTION": 13.94988814,
        "ECCENTRICITY": 0.02616196,
        "INCLINATION": 74.1273,
        "RA_OF_ASC_NODE": 38.1037,
        "ARG_OF_PERICENTER": 76.0202,
        "MEAN_ANOMALY": 286.9869,
        "EPHEMERIS_TYPE": 0,
        "CLASSIFICATION_TYPE": "U",
        "NORAD_CAT_ID": 36559,
        "ELEMENT_SET_NO": 999,
        "REV_AT_EPOCH": 80863,
        "BSTAR": 0.0036014187,
        "MEAN_MOTION_DOT": 6.432e-05,
        "MEAN_MOTION_DDOT": 0,
        "norad_id": 36559,
        "name": "COSMOS 2251 DEB",
        "group": "cosmos-2251-debris",
        "longitude_deg": NaN,
        "latitude_deg": NaN,
        "alt_km": NaN,
        "orbit_class": "HEO",
        "timestamp": "2025-11-30T09:33:02.609909+00:00"
      },
      "geometry": {
        "type": "Point",
        "coordinates": [
          NaN,
          NaN
        ]
      }
    },
    {
      "type": "Feature",
      "properties": {
        "OBJECT_NAME": "COSMOS 2251 DEB",
        "OBJECT_ID": "1993-036BEC",
        "EPOCH": "2025-11-25T09:00:10.628928",
        "MEAN_MOTION": 14.59970735,
        "ECCENTRICITY": 0.00167592,
        "INCLINATION": 74.022,
        "RA_OF_ASC_NODE": 207.7513,
        "ARG_OF_PERICENTER": 278.8817,
        "MEAN_ANOMALY": 81.0451,
        "EPHEMERIS_TYPE": 0,
        "CLASSIFICATION_TYPE": "U",
        "NORAD_CAT_ID": 36614,
        "ELEMENT_SET_NO": 999,
        "REV_AT_EPOCH": 65359,
        "BSTAR": 0.0014762641,
        "MEAN_MOTION_DOT": 7.071e-05,
        "MEAN_MOTION_DDOT": 0,
        "norad_id": 36614,
        "name": "COSMOS 2251 DEB",
        "group": "cosmos-2251-debris",
        "longitude_deg": NaN,
        "latitude_deg": NaN,
        "alt_km": NaN,
        "orbit_class": "HEO",
        "timestamp": "2025-11-30T09:33:02.609917+00:00"
      },
      "geometry": {
        "type": "Point",
        "coordinates": [
          NaN,
          NaN
        ]
      }
    },
    {
      "type": "Feature",
      "properties": {
        "OBJECT_NAME": "COSMOS 2251 DEB",
        "OBJECT_ID": "1993-036BEL",
        "EPOCH": "2025-11-24T20:57:04.881024",
        "MEAN_MOTION": 14.75982614,
        "ECCENTRICITY": 0.0068543,
        "INCLINATION": 74.0126,
        "RA_OF_ASC_NODE": 180.5013,
        "ARG_OF_PERICENTER": 319.5209,
        "MEAN_ANOMALY": 40.0876,
        "EPHEMERIS_TYPE": 0,
        "CLASSIFICATION_TYPE": "U",
        "NORAD_CAT_ID": 36622,
        "ELEMENT_SET_NO": 999,
        "REV_AT_EPOCH": 66486,
        "BSTAR": 0.00071237,
        "MEAN_MOTION_DOT": 5.063e-05,
        "MEAN_MOTION_DDOT": 0,
        "norad_id": 36622,
        "name": "COSMOS 2251 DEB",
        "group": "cosmos-2251-debris",
        "longitude_deg": NaN,
        "latitude_deg": NaN,
        "alt_km": NaN,
        "orbit_class": "HEO",
        "timestamp": "2025-11-30T09:33:02.609923+00:00"
      },
      "geometry": {
        "type": "Point",
        "coordinates": [
          NaN,
          NaN
        ]
      }
    },
    {
      "type": "Feature",
      "properties": {
        "OBJECT_NAME": "COSMOS 2251 DEB",
        "OBJECT_ID": "1993-036BEW",
        "EPOCH": "2025-11-27T16:36:40.883040",
        "MEAN_MOTION": 14.43048927,
        "ECCENTRICITY": 0.00313592,
        "INCLINATION": 74.002,
        "RA_OF_ASC_NODE": 320.3739,
        "ARG_OF_PERICENTER": 72.5222,
        "MEAN_ANOMALY": 287.9358,
        "EPHEMERIS_TYPE": 0,
        "CLASSIFICATION_TYPE": "U",
        "NORAD_CAT_ID": 36632,
        "ELEMENT_SET_NO": 999,
        "REV_AT_EPOCH": 64998,
        "BSTAR": 0.00077138734,
        "MEAN_MOTION_DOT": 2.575e-05,
        "MEAN_MOTION_DDOT": 0,
        "norad_id": 36632,
        "name": "COSMOS 2251 DEB",
        "group": "cosmos-2251-debris",
        "longitude_deg": NaN,
        "latitude_deg": NaN,
        "alt_km": NaN,
        "orbit_class": "HEO",
        "timestamp": "2025-11-30T09:33:02.609929+00:00"
      },
      "geometry": {
        "type": "Point",
        "coordinates": [
          NaN,
          NaN
        ]
      }
    },
    {
      "type": "Feature",
      "properties": {
        "OBJECT_NAME": "COSMOS 2251 DEB",
        "OBJECT_ID": "1993-036BFE",
        "EPOCH": "2025-11-18T09:40:29.170560",
        "MEAN_MOTION": 15.00533216,
        "ECCENTRICITY": 0.00986255,
        "INCLINATION": 74.0286,
        "RA_OF_ASC_NODE": 210.9985,
        "ARG_OF_PERICENTER": 297.2683,
        "MEAN_ANOMALY": 61.8484,
        "EPHEMERIS_TYPE": 0,
        "CLASSIFICATION_TYPE": "U",
        "NORAD_CAT_ID": 37084,
        "ELEMENT_SET_NO": 999,
        "REV_AT_EPOCH": 65902,
        "BSTAR": 0.00051175737,
        "MEAN_MOTION_DOT": 7.119e-05,
        "MEAN_MOTION_DDOT": 0,
        "norad_id": 37084,
        "name": "COSMOS 2251 DEB",
        "group": "cosmos-2251-debris",
        "longitude_deg": NaN,
        "latitude_deg": NaN,
        "alt_km": NaN,
        "orbit_class": "HEO",
        "timestamp": "2025-11-30T09:33:02.609935+00:00"
      },
      "geometry": {
        "type": "Point",
        "coordinates": [
          NaN,
          NaN
        ]
      }
    },
    {
      "type": "Feature",
      "properties": {
        "OBJECT_NAME": "COSMOS 2251 DEB",
        "OBJECT_ID": "1993-036BFF",
        "EPOCH": "2025-11-28T11:55:49.113408",
        "MEAN_MOTION": 15.38117906,
        "ECCENTRICITY": 0.00226635,
        "INCLINATION": 73.9498,
        "RA_OF_ASC_NODE": 246.9762,
        "ARG_OF_PERICENTER": 85.7386,
        "MEAN_ANOMALY": 274.6409,
        "EPHEMERIS_TYPE": 0,
        "CLASSIFICATION_TYPE": "U",
        "NORAD_CAT_ID": 37085,
        "ELEMENT_SET_NO": 999,
        "REV_AT_EPOCH": 66918,
        "BSTAR": 0.0022192739,
        "MEAN_MOTION_DOT": 0.00084925,
        "MEAN_MOTION_DDOT": 0,
        "norad_id": 37085,
        "name": "COSMOS 2251 DEB",
        "group": "cosmos-2251-debris",
        "longitude_deg": NaN,
        "latitude_deg": NaN,
        "alt_km": NaN,
        "orbit_class": "HEO",
        "timestamp": "2025-11-30T09:33:02.609944+00:00"
      },
      "geometry": {
        "type": "Point",
        "coordinates": [
          NaN,
          NaN
        ]
      }
    },
    {
      "type": "Feature",
      "properties": {
        "OBJECT_NAME": "COSMOS 2251 DEB",
        "OBJECT_ID": "1993-036BFK",
        "EPOCH": "2025-11-27T19:45:58.315104",
        "MEAN_MOTION": 14.52523041,
        "ECCENTRICITY": 0.0136019,
        "INCLINATION": 74.0379,
        "RA_OF_ASC_NODE": 173.8866,
        "ARG_OF_PERICENTER": 277.3049,
        "MEAN_ANOMALY": 81.267,
        "EPHEMERIS_TYPE": 0,
        "CLASSIFICATION_TYPE": "U",
        "NORAD_CAT_ID": 37089,
        "ELEMENT_SET_NO": 999,
        "REV_AT_EPOCH": 65893,
        "BSTAR": 0.0020033475,
        "MEAN_MOTION_DOT": 9.221e-05,
        "MEAN_MOTION_DDOT": 0,
        "norad_id": 37089,
        "name": "COSMOS 2251 DEB",
        "group": "cosmos-2251-debris",
        "longitude_deg": NaN,
        "latitude_deg": NaN,
        "alt_km": NaN,
        "orbit_class": "HEO",
        "timestamp": "2025-11-30T09:33:02.609950+00:00"
      },
      "geometry": {
        "type": "Point",
        "coordinates": [
          NaN,
          NaN
        ]
      }
    },
    {
      "type": "Feature",
      "properties": {
        "OBJECT_NAME": "COSMOS 2251 DEB",
        "OBJECT_ID": "1993-036BFQ",
        "EPOCH": "2025-11-24T19:00:00.357120",
        "MEAN_MOTION": 14.37674552,
        "ECCENTRICITY": 0.0084502,
        "INCLINATION": 74.1075,
        "RA_OF_ASC_NODE": 154.0604,
        "ARG_OF_PERICENTER": 125.332,
        "MEAN_ANOMALY": 235.5772,
        "EPHEMERIS_TYPE": 0,
        "CLASSIFICATION_TYPE": "U",
        "NORAD_CAT_ID": 37094,
        "ELEMENT_SET_NO": 999,
        "REV_AT_EPOCH": 84248,
        "BSTAR": 0.0010704,
        "MEAN_MOTION_DOT": 3.328e-05,
        "MEAN_MOTION_DDOT": 0,
        "norad_id": 37094,
        "name": "COSMOS 2251 DEB",
        "group": "cosmos-2251-debris",
        "longitude_deg": NaN,
        "latitude_deg": NaN,
        "alt_km": NaN,
        "orbit_class": "HEO",
        "timestamp": "2025-11-30T09:33:02.609956+00:00"
      },
      "geometry": {
        "type": "Point",
        "coordinates": [
          NaN,
          NaN
        ]
      }
    }
  ]
}