COSMOS 2251 DEB         
1 36559U 93036BDV 25330.18087090  .00006432  00000+0  36014-2 0  9995
2 36559  74.1273  38.1037 0261619  76.0202 286.9869 13.94988814808636
COSMOS 2251 DEB         
1 36614U 93036BEC 25329.37512302  .00007071  00000+0  14763-2 0  9992
2 36614  74.0220 207.7513 0016759 278.8817  81.0451 14.59970735653598
COSMOS 2251 DEB         
1 36622U 93036BEL 25328.87297316  .00005063  00000+0  71237-3 0  9999
2 36622  74.0126 180.5013 0068543 319.5209  40.0876 14.75982614664866
COSMOS 2251 DEB         
1 36632U 93036BEW 25331.69213985  .00002575  00000+0  77139-3 0  9996
2 36632  74.0020 320.3739 0031359  72.5222 287.9358 14.43048927649983
COSMOS 2251 DEB         
1 37084U 93036BFE 25322.40311540  .00007119  00000+0  51176-3 0  9995
2 37084  74.0286 210.9985 0098625 297.2683  61.8484 15.00533216659021
COSMOS 2251 DEB         
1 37085U 93036BFF 25332.49709622  .00084925  00000+0  22193-2 0  9994
2 37085  73.9498 246.9762 0022663  85.7386 274.6409 15.38117906669180
COSMOS 2251 DEB         
1 37089U 93036BFK 25331.82359161  .00009221  00000+0  20033-2 0  9990
2 37089  74.0379 173.8866 0136019 277.3049  81.2670 14.52523041658932
COSMOS 2251 DEB         
1 37094U 93036BFQ 25328.79167080  .00003328  00000+0  10704-2 0  9991
2 37094  74.1075 154.0604 0084502 125.3320 235.5772 14.37674552842485
